     2.11           N: GPS NAV DATA                         RINEX VERSION / TYPE
teqc  2019Feb25                         20221121 12:28:41UTCPGM / RUN BY / DATE
OSX ker:10.11.6|Core i5|gcc 4.3 -m64|OSX ker:10.10+|=+      COMMENT
    1.2107D-08  0.0000D+00 -1.1921D-07  0.0000D+00          ION ALPHA
    9.4208D+04  0.0000D+00 -1.9661D+05  0.0000D+00          ION BETA
    2.793967723846D-09 7.105427357601D-15   147456     1555 DELTA-UTC: A0,A1,T,W
                                                            END OF HEADER
 2 09 10 25  0  0  0.0 1.843245700002D-04 3.865352482535D-12 0.000000000000D+00
    6.700000000000D+01 1.321875000000D+01 5.248432904011D-09-7.422733236005D-01
    6.780028343201D-07 9.130189777352D-03 7.417052984238D-06 5.153721082687D+03
    0.000000000000D+00 5.587935447693D-08 3.117107939989D+00-1.452863216400D-07
    9.410525343868D-01 2.261875000000D+02 2.906674563486D+00-8.310346159274D-09
   -2.821546100149D-11 1.000000000000D+00 1.555000000000D+03 0.000000000000D+00
    2.000000000000D+00 0.000000000000D+00-1.722946763039D-08 6.700000000000D+01
   -2.952000000000D+03 4.000000000000D+00
 4 09 10 25  0  0  0.0-3.266539424658D-04-1.784883352229D-11 0.000000000000D+00
    7.800000000000D+01 1.006250000000D+01 5.214502919263D-09 2.103514977099D+00
    5.643814802170D-07 8.968756766990D-03 7.852911949158D-06 5.153558670044D+03
    0.000000000000D+00-2.365559339523D-07 3.135275761620D+00-3.911554813385D-08
    9.402368112658D-01 2.197812500000D+02 5.441841507913D-01-8.206770416358D-09
   -1.064330047904D-10 1.000000000000D+00 1.555000000000D+03 0.000000000000D+00
    2.000000000000D+00 0.000000000000D+00-6.053596735001D-09 7.800000000000D+01
   -2.952000000000D+03 4.000000000000D+00
 5 09 10 25  0  0  0.0-5.808565765619D-05 8.071765478235D-12 0.000000000000D+00
    7.000000000000D+01 5.737500000000D+01 4.548403744987D-09 6.556729547475D-01
    3.036111593246D-06 1.573376823217D-03 7.921829819679D-06 5.153584602356D+03
    0.000000000000D+00 0.000000000000D+00-2.108116720506D+00-7.264316082001D-08
    9.610796400476D-01 2.237500000000D+02 2.161724948292D-01-8.021762710044D-09
   -3.017982853957D-10 1.000000000000D+00 1.555000000000D+03 0.000000000000D+00
    2.000000000000D+00 0.000000000000D+00-9.313225746155D-09 7.000000000000D+01
   -2.952000000000D+03 4.000000000000D+00
10 09 10 25  0  0  0.0-2.666981890798D-05-9.094947017729D-13 0.000000000000D+00
    6.700000000000D+01 5.715625000000D+01 4.709124725375D-09 3.881663573040D-01
    3.134831786156D-06 8.654284407385D-03 7.798895239830D-06 5.153391929626D+03
    0.000000000000D+00 1.676380634308D-08-2.081147316619D+00 5.587935447693D-08
    9.561382699682D-01 2.243437500000D+02 6.160230866685D-01-8.200341577142D-09
   -3.142988060926D-10 1.000000000000D+00 1.555000000000D+03 0.000000000000D+00
    2.000000000000D+00 0.000000000000D+00-2.793967723846D-09 6.700000000000D+01
   -2.952000000000D+03 4.000000000000D+00
13 09 10 25  0  0  0.0 3.058593720198D-04 2.273736754432D-13 0.000000000000D+00
    3.200000000000D+01 4.137500000000D+01 3.815158916683D-09-1.127566667792D-01
    2.115964889526D-06 3.949797712266D-03 5.168840289116D-06 5.153636703491D+03
    0.000000000000D+00-5.960464477539D-08-9.946652387025D-01 2.980232238770D-08
    9.941222166778D-01 2.973437500000D+02 1.660702084439D+00-7.878185300897D-09
   -7.214586230761D-11 1.000000000000D+00 1.555000000000D+03 0.000000000000D+00
    2.000000000000D+00 0.000000000000D+00-1.117587089539D-08 3.200000000000D+01
   -2.952000000000D+03 4.000000000000D+00
23 09 10 25  0  0  0.0 3.870381042361D-04-5.684341886081D-13 0.000000000000D+00
    7.800000000000D+01 3.937500000000D+01 4.292678807303D-09-8.455489777660D-01
    1.985579729080D-06 6.380059872754D-03 5.241483449936D-06 5.153763732910D+03
    0.000000000000D+00 2.048909664154D-08-1.050271644350D+00-1.080334186554D-07
    9.694217182714D-01 2.832812500000D+02 2.994673960397D+00-8.079979420718D-09
   -4.393040130612D-11 1.000000000000D+00 1.555000000000D+03 0.000000000000D+00
    2.000000000000D+00 0.000000000000D+00-2.002343535423D-08 7.800000000000D+01
   -2.952000000000D+03 4.000000000000D+00
25 09 10 25  0  0  0.0 6.431057117879D-04 1.341504685115D-11 0.000000000000D+00
    5.600000000000D+01-3.465625000000D+01 4.150530029093D-09 2.128900899439D+00
   -1.799315214157D-06 1.125699363183D-02 4.377216100693D-06 5.153642705917D+03
    0.000000000000D+00 1.937150955200D-07-1.029620498798D-01 3.539025783539D-08
    9.716410586245D-01 2.979687500000D+02-1.215101924684D+00-7.859613098719D-09
   -1.100045821324D-10 1.000000000000D+00 1.555000000000D+03 0.000000000000D+00
    2.800000000000D+00 0.000000000000D+00-7.450580596924D-09 5.600000000000D+01
   -2.952000000000D+03 4.000000000000D+00
29 09 10 25  0  0  0.0 6.878562271595D-05 3.183231456205D-12 0.000000000000D+00
    8.900000000000D+01-1.278125000000D+01 4.574119101849D-09 2.966480158446D+00
   -8.717179298401D-07 2.955223200843D-03 8.147209882736D-06 5.153583242416D+03
    0.000000000000D+00 7.636845111847D-08 2.112212108467D+00 3.352761268616D-08
    9.600024773737D-01 2.207812500000D+02-1.271641477498D+00-7.885685613315D-09
    2.757257707994D-10 1.000000000000D+00 1.555000000000D+03 0.000000000000D+00
    2.800000000000D+00 0.000000000000D+00-8.847564458847D-09 8.900000000000D+01
   -2.952000000000D+03 4.000000000000D+00
16 09 10 25  0  0  0.0-1.072417944670D-06-4.092726157978D-12 0.000000000000D+00
    5.900000000000D+01-6.262500000000D+01 4.130886353712D-09 1.489707450603D+00
   -3.153458237648D-06 5.300026503392D-03 7.595866918564D-06 5.153645980835D+03
    0.000000000000D+00 7.450580596924D-09 1.060930086579D+00 9.872019290924D-08
    9.695914855258D-01 2.368125000000D+02-2.698306256772D-01-7.803182176716D-09
    1.092902666640D-10 1.000000000000D+00 1.555000000000D+03 0.000000000000D+00
    2.000000000000D+00 0.000000000000D+00-9.778887033463D-09 5.900000000000D+01
   -1.092000000000D+03 4.000000000000D+00
 7 09 10 25  0  0  0.0 8.983537554741D-06-6.821210263297D-13 0.000000000000D+00
    7.000000000000D+01-4.321875000000D+01 4.274106605125D-09-2.458056855774D+00
   -2.231448888779D-06 3.237677039579D-03 5.019828677177D-06 5.153647394180D+03
    0.000000000000D+00-3.725290298462D-08-8.808108333067D-03-2.980232238770D-08
    9.695327815491D-01 2.876562500000D+02 3.000015963758D+00-8.038549123551D-09
   -2.642967233051D-11 1.000000000000D+00 1.555000000000D+03 0.000000000000D+00
    2.000000000000D+00 0.000000000000D+00-1.071020960808D-08 7.000000000000D+01
   -7.620000000000D+02 4.000000000000D+00
